{
  "type": "FeatureCollection",
  "features": [
    {
      "type": "Feature",
      "properties": {
        "norad_id": 67005,
        "name": "STARLINK-36148",
        "group": "last-30-days",
        "lat": 32.92646905689206,
        "lon": 112.02874102276016,
        "alt_km": 286.9234313982988,
        "timestamp": "2025-12-18T23:35:47.784028+00:00",
        "meta_object_name": "STARLINK-36148",
        "meta_object_id": "2025-293C",
        "meta_epoch": "2025-12-17T20:00:01.999872",
        "meta_mean_motion": 15.97088495,
        "meta_eccentricity": 0.00041461,
        "meta_inclination": 69.9939,
        "meta_ra_of_asc_node": 309.0351,
        "meta_arg_of_pericenter": 266.6812,
        "meta_mean_anomaly": 113.3161,
        "meta_ephemeris_type": 0,
        "meta_classification_type": "U",
        "meta_norad_cat_id": 67005,
        "meta_element_set_no": 999,
        "meta_rev_at_epoch": 238,
        "meta_bstar": -0.0021761225,
        "meta_mean_motion_dot": -0.0094726,
        "meta_mean_motion_ddot": 0.00028823862,
        "tle_line1": "1 67005U 25293C   25351.83335648 -.00947260  28824-3 -21761-2 0  9991",
        "tle_line2": "2 67005  69.9939 309.0351 0004146 266.6812 113.3161 15.97088495  2387"
      },
      "geometry": {
        "type": "Point",
        "coordinates": [
          112.02874102276016,
          32.92646905689206
        ]
      }
    },
    {
      "type": "Feature",
      "properties": {
        "norad_id": 67006,
        "name": "STARLINK-36156",
        "group": "last-30-days",
        "lat": 28.617527706960335,
        "lon": 114.20370366361128,
        "alt_km": 286.97809774102643,
        "timestamp": "2025-12-18T23:35:47.784037+00:00",
        "meta_object_name": "STARLINK-36156",
        "meta_object_id": "2025-293D",
        "meta_epoch": "2025-12-17T20:00:01.999872",
        "meta_mean_motion": 15.97269332,
        "meta_eccentricity": 0.00041045,
        "meta_inclination": 69.9938,
        "meta_ra_of_asc_node": 309.0299,
        "meta_arg_of_pericenter": 266.4594,
        "meta_mean_anomaly": 117.5341,
        "meta_ephemeris_type": 0,
        "meta_classification_type": "U",
        "meta_norad_cat_id": 67006,
        "meta_element_set_no": 999,
        "meta_rev_at_epoch": 238,
        "meta_bstar": -0.0021807905,
        "meta_mean_motion_dot": -0.00958648,
        "meta_mean_motion_ddot": 0.00029524434,
        "tle_line1": "1 67006U 25293D   25351.83335648 -.00958648  29524-3 -21808-2 0  9994",
        "tle_line2": "2 67006  69.9938 309.0299 0004104 266.4594 117.5341 15.97269332  2384"
      },
      "geometry": {
        "type": "Point",
        "coordinates": [
          114.20370366361128,
          28.617527706960335
        ]
      }
    },
    {
      "type": "Feature",
      "properties": {
        "norad_id": 67007,
        "name": "STARLINK-36123",
        "group": "last-30-days",
        "lat": 30.573452003472884,
        "lon": 113.24237337398388,
        "alt_km": 286.9095247549594,
        "timestamp": "2025-12-18T23:35:47.784048+00:00",
        "meta_object_name": "STARLINK-36123",
        "meta_object_id": "2025-293E",
        "meta_epoch": "2025-12-17T20:00:01.999872",
        "meta_mean_motion": 15.97188271,
        "meta_eccentricity": 0.00041101,
        "meta_inclination": 69.9936,
        "meta_ra_of_asc_node": 309.032,
        "meta_arg_of_pericenter": 265.4955,
        "meta_mean_anomaly": 116.6939,
        "meta_ephemeris_type": 0,
        "meta_classification_type": "U",
        "meta_norad_cat_id": 67007,
        "meta_element_set_no": 999,
        "meta_rev_at_epoch": 238,
        "meta_bstar": -0.0021833236,
        "meta_mean_motion_dot": -0.00955528,
        "meta_mean_motion_ddot": 0.00029321675,
        "tle_line1": "1 67007U 25293E   25351.83335648 -.00955528  29322-3 -21833-2 0  9993",
        "tle_line2": "2 67007  69.9936 309.0320 0004110 265.4955 116.6939 15.97188271  2380"
      },
      "geometry": {
        "type": "Point",
        "coordinates": [
          113.24237337398388,
          30.573452003472884
        ]
      }
    },
    {
      "type": "Feature",
      "properties": {
        "norad_id": 67008,
        "name": "STARLINK-36163",
        "group": "last-30-days",
        "lat": 26.037422236951652,
        "lon": 115.41367179711044,
        "alt_km": 287.1483837472024,
        "timestamp": "2025-12-18T23:35:47.784058+00:00",
        "meta_object_name": "STARLINK-36163",
        "meta_object_id": "2025-293F",
        "meta_epoch": "2025-12-17T20:00:01.999872",
        "meta_mean_motion": 15.97384734,
        "meta_eccentricity": 0.00040991,
        "meta_inclination": 69.9938,
        "meta_ra_of_asc_node": 309.0271,
        "meta_arg_of_pericenter": 268.4865,
        "meta_mean_anomaly": 117.8948,
        "meta_ephemeris_type": 0,
        "meta_classification_type": "U",
        "meta_norad_cat_id": 67008,
        "meta_element_set_no": 999,
        "meta_rev_at_epoch": 238,
        "meta_bstar": -0.0022040941,
        "meta_mean_motion_dot": -0.00974922,
        "meta_mean_motion_ddot": 0.00030494444,
        "tle_line1": "1 67008U 25293F   25351.83335648 -.00974922  30494-3 -22041-2 0  9997",
        "tle_line2": "2 67008  69.9938 309.0271 0004099 268.4865 117.8948 15.97384734  2382"
      },
      "geometry": {
        "type": "Point",
        "coordinates": [
          115.41367179711044,
          26.037422236951652
        ]
      }
    },
    {
      "type": "Feature",
      "properties": {
        "norad_id": 67009,
        "name": "STARLINK-36118",
        "group": "last-30-days",
        "lat": 23.886781328066892,
        "lon": 116.3785180496335,
        "alt_km": 287.0258810134046,
        "timestamp": "2025-12-18T23:35:47.784068+00:00",
        "meta_object_name": "STARLINK-36118",
        "meta_object_id": "2025-293G",
        "meta_epoch": "2025-12-17T20:00:01.999872",
        "meta_mean_motion": 15.97466435,
        "meta_eccentricity": 0.00041241,
        "meta_inclination": 69.9937,
        "meta_ra_of_asc_node": 309.0248,
        "meta_arg_of_pericenter": 265.8228,
        "meta_mean_anomaly": 122.516,
        "meta_ephemeris_type": 0,
        "meta_classification_type": "U",
        "meta_norad_cat_id": 67009,
        "meta_element_set_no": 999,
        "meta_rev_at_epoch": 238,
        "meta_bstar": -0.0021807745,
        "meta_mean_motion_dot": -0.00969011,
        "meta_mean_motion_ddot": 0.00030180511,
        "tle_line1": "1 67009U 25293G   25351.83335648 -.00969011  30181-3 -21808-2 0  9994",
        "tle_line2": "2 67009  69.9937 309.0248 0004124 265.8228 122.5160 15.97466435  2387"
      },
      "geometry": {
        "type": "Point",
        "coordinates": [
          116.3785180496335,
          23.886781328066892
        ]
      }
    },
    {
      "type": "Feature",
      "properties": {
        "norad_id": 67010,
        "name": "STARLINK-36189",
        "group": "last-30-days",
        "lat": 20.07054818947038,
        "lon": 118.0093526434425,
        "alt_km": 287.0496013407419,
        "timestamp": "2025-12-18T23:35:47.784078+00:00",
        "meta_object_name": "STARLINK-36189",
        "meta_object_id": "2025-293H",
        "meta_epoch": "2025-12-17T20:00:01.999872",
        "meta_mean_motion": 15.97618262,
        "meta_eccentricity": 0.00040963,
        "meta_inclination": 69.9937,
        "meta_ra_of_asc_node": 309.0206,
        "meta_arg_of_pericenter": 265.9646,
        "meta_mean_anomaly": 125.8501,
        "meta_ephemeris_type": 0,
        "meta_classification_type": "U",
        "meta_norad_cat_id": 67010,
        "meta_element_set_no": 999,
        "meta_rev_at_epoch": 238,
        "meta_bstar": -0.0021633066,
        "meta_mean_motion_dot": -0.00969309,
        "meta_mean_motion_ddot": 0.00030247187,
        "tle_line1": "1 67010U 25293H   25351.83335648 -.00969309  30247-3 -21633-2 0  9995",
        "tle_line2": "2 67010  69.9937 309.0206 0004096 265.9646 125.8501 15.97618262  2388"
      },
      "geometry": {
        "type": "Point",
        "coordinates": [
          118.0093526434425,
          20.07054818947038
        ]
      }
    },
    {
      "type": "Feature",
      "properties": {
        "norad_id": 67011,
        "name": "STARLINK-36167",
        "group": "last-30-days",
        "lat": 22.248476481992206,
        "lon": 117.08967311255752,
        "alt_km": 287.10629300833625,
        "timestamp": "2025-12-18T23:35:47.784090+00:00",
        "meta_object_name": "STARLINK-36167",
        "meta_object_id": "2025-293J",
        "meta_epoch": "2025-12-17T20:00:01.999872",
        "meta_mean_motion": 15.97527007,
        "meta_eccentricity": 0.00041269,
        "meta_inclination": 69.9933,
        "meta_ra_of_asc_node": 309.0226,
        "meta_arg_of_pericenter": 267.6668,
        "meta_mean_anomaly": 122.1597,
        "meta_ephemeris_type": 0,
        "meta_classification_type": "U",
        "meta_norad_cat_id": 67011,
        "meta_element_set_no": 999,
        "meta_rev_at_epoch": 238,
        "meta_bstar": -0.0021610015,
        "meta_mean_motion_dot": -0.00963479,
        "meta_mean_motion_ddot": 0.00029882662,
        "tle_line1": "1 67011U 25293J   25351.83335648 -.00963479  29883-3 -21610-2 0  9997",
        "tle_line2": "2 67011  69.9933 309.0226 0004126 267.6668 122.1597 15.97527007  2385"
      },
      "geometry": {
        "type": "Point",
        "coordinates": [
          117.08967311255752,
          22.248476481992206
        ]
      }
    }
  ]
}